ASTROCAST-0403          
1 55111U 23001DG  26068.82333059  .00013959  00000+0  51317-3 0  9990
2 55111  97.5604 161.3228 0004771 338.0704  22.0330 15.28004949129377
STARLINK-31921          
1 59868U 24098L   26068.50810017 -.00003771  00000+0 -12766-3 0  9997
2 59868  43.0058 238.6667 0001977 279.3579  80.7049 15.27557354102276
